{"type": "FeatureCollection", "features": [{"type": "Feature", "properties": {"name": "Philadelphia"}, "geometry": {"type": "Polygon", "coordinates": [[[-75.28, 39.87], [-74.96, 39.87], [-74.96, 40.14], [-75.28, 40.14], [-75.28, 39.87]]]}}, {"type": "Feature", "properties": {"name": "Montgomery"}, "geometry": {"type": "Polygon", "coordinates": [[[-75.7, 40.07], [-75.07, 40.07], [-75.07, 40.44], [-75.7, 40.44], [-75.7, 40.07]]]}}, {"type": "Feature", "properties": {"name": "Bucks"}, "geometry": {"type": "Polygon", "coordinates": [[[-75.27, 40.08], [-74.71, 40.08], [-74.71, 40.6], [-75.27, 40.6], [-75.27, 40.08]]]}}, {"type": "Feature", "properties": {"name": "Chester"}, "geometry": {"type": "Polygon", "coordinates": [[[-76.14, 39.72], [-75.35, 39.72], [-75.35, 40.15], [-76.14, 40.15], [-76.14, 39.72]]]}}, {"type": "Feature", "properties": {"name": "Delaware"}, "geometry": {"type": "Polygon", "coordinates": [[[-75.48, 39.84], [-75.2, 39.84], [-75.2, 40.0], [-75.48, 40.0], [-75.48, 39.84]]]}}, {"type": "Feature", "properties": {"name": "Camden"}, "geometry": {"type": "Polygon", "coordinates": [[[-75.13, 39.7], [-74.9, 39.7], [-74.9, 39.98], [-75.13, 39.98], [-75.13, 39.7]]]}}, {"type": "Feature", "properties": {"name": "Burlington"}, "geometry": {"type": "Polygon", "coordinates": [[[-75.1, 39.75], [-74.48, 39.75], [-74.48, 40.18], [-75.1, 40.18], [-75.1, 39.75]]]}}, {"type": "Feature", "properties": {"name": "Gloucester"}, "geometry": {"type": "Polygon", "coordinates": [[[-75.45, 39.5], [-74.98, 39.5], [-74.98, 39.85], [-75.45, 39.85], [-75.45, 39.5]]]}}]}